WGS 10 (USA 291)        
1 44071U 19014A   26064.81572378  .00000040  00000+0  00000+0 0  9992
2 44071   0.0193 134.4981 0000514 231.1261 151.8623  1.00274340 25584
TIANLIAN 2-01           
1 44076U 19017A   26064.66978843 -.00000113  00000+0  00000+0 0  9992
2 44076   0.2732  82.3795 0003258 223.5115 175.6339  1.00271689 25610
ARABSAT-6A              
1 44186U 19021A   26064.67532929  .00000000  00000+0  00000+0 0  9995
2 44186   0.0189  14.1406 0003303 313.4594 109.4247  1.00268496 25119
BEIDOU-3 IGSO-1         
1 44204U 19023A   26064.80106032 -.00000208  00000+0  00000+0 0  9996
2 44204  58.5558  38.7110 0025989 236.4268 295.9247  1.00270665  6175
BEIDOU-2 G8             
1 44231U 19027A   26063.42864138 -.00000263  00000+0  00000+0 0  9996
2 44231   1.3928  74.2820 0011710 280.8825 105.6990  1.00247794 25039
YAMAL 601               
1 44307U 19031A   26064.66424174  .00000113  00000+0  00000+0 0  9997
2 44307   0.0174 170.4969 0002556 178.5344 102.4760  1.00273289 24871
AT&T T-16               
1 44333U 19034A   26064.63451493 -.00000122  00000+0  00000+0 0  9991
2 44333   0.0230 102.0482 0000951  67.1555 121.7122  1.00272659 24593
EUTELSAT 7C             
1 44334U 19034B   26064.65592169  .00000041  00000+0  00000+0 0  9999
2 44334   0.0719 181.8978 0003239 150.9559  73.6280  1.00270081  5796
BEIDOU-3 IGSO-2         
1 44337U 19035A   26057.68879618 -.00000176  00000+0  00000+0 0  9995
2 44337  55.2338 159.8353 0038734 206.4752 153.7223  1.00247364 24561
COSMOS 2539             
1 44457U 19048A   26064.73732581  .00000074  00000+0  00000+0 0  9999
2 44457   0.0145 118.3142 0000441 205.3977 117.1793  1.00273672 24180
EDRS-C                  
1 44475U 19049A   26064.78794816 -.00000269  00000+0  00000+0 0  9991
2 44475   0.0339 118.0830 0001305 237.3699 234.2140  1.00271858 24172
INTELSAT 39 (IS-39)     
1 44476U 19049B   26064.45286078  .00000000  00000+0  00000+0 0  9994
2 44476   0.0244 149.9814 0000721 354.7122 243.4677  1.00269682 24088
AMOS-17                 
1 44479U 19050A   26064.74177078  .00000102  00000+0  00000+0 0  9993
2 44479   0.0450 291.1442 0001437  56.4653  99.8642  1.00271937 24145
COSMOS 1897 DEB         
1 44572U 87096G   26064.34095762  .00000074  00000+0  00000+0 0  9995
2 44572  11.0128 326.9945 0023031 298.6903 237.1530  1.00473678 69946
LUCH DEB                
1 44582U 94082G   26062.81596193 -.00000238  00000+0  00000+0 0  9996
2 44582  14.6056 354.8501 0016547  88.2846  90.4887  1.00702749 45186
EUTELSAT 5 WEST B       
1 44624U 19067A   26064.65358169 -.00000049  00000+0  00000+0 0  9996
2 44624   0.0925 311.8541 0003208  43.0402  38.7482  1.00272905 23392
MEV-1                   
1 44625U 19067B   26057.83942429 -.00000160  00000+0  00000+0 0  9991
2 44625   0.8853 269.7923 0003215  58.4490 286.7172  1.00269845 60471
