[{"OBJECT_NAME":"WGS 10 (USA 291)","OBJECT_ID":"2019-014A","EPOCH":"2026-03-05T19:34:38.534592","MEAN_MOTION":1.0027434,"ECCENTRICITY":5.14e-5,"INCLINATION":0.0193,"RA_OF_ASC_NODE":134.4981,"ARG_OF_PERICENTER":231.1261,"MEAN_ANOMALY":151.8623,"EPHEMERIS_TYPE":0,"CLASSIFICATION_TYPE":"U","NORAD_CAT_ID":44071,"ELEMENT_SET_NO":999,"REV_AT_EPOCH":2558,"BSTAR":0,"MEAN_MOTION_DOT":4.0e-7,"MEAN_MOTION_DDOT":0},{"OBJECT_NAME":"TIANLIAN 2-01","OBJECT_ID":"2019-017A","EPOCH":"2026-03-05T16:04:29.720352","MEAN_MOTION":1.00271689,"ECCENTRICITY":0.0003258,"INCLINATION":0.2732,"RA_OF_ASC_NODE":82.3795,"ARG_OF_PERICENTER":223.5115,"MEAN_ANOMALY":175.6339,"EPHEMERIS_TYPE":0,"CLASSIFICATION_TYPE":"U","NORAD_CAT_ID":44076,"ELEMENT_SET_NO":999,"REV_AT_EPOCH":2561,"BSTAR":0,"MEAN_MOTION_DOT":-1.13e-6,"MEAN_MOTION_DDOT":0},{"OBJECT_NAME":"ARABSAT-6A","OBJECT_ID":"2019-021A","EPOCH":"2026-03-05T16:12:28.450656","MEAN_MOTION":1.00268496,"ECCENTRICITY":0.0003303,"INCLINATION":0.0189,"RA_OF_ASC_NODE":14.1406,"ARG_OF_PERICENTER":313.4594,"MEAN_ANOMALY":109.4247,"EPHEMERIS_TYPE":0,"CLASSIFICATION_TYPE":"U","NORAD_CAT_ID":44186,"ELEMENT_SET_NO":999,"REV_AT_EPOCH":2511,"BSTAR":0,"MEAN_MOTION_DOT":0,"MEAN_MOTION_DDOT":0},{"OBJECT_NAME":"BEIDOU-3 IGSO-1","OBJECT_ID":"2019-023A","EPOCH":"2026-03-05T19:13:31.611648","MEAN_MOTION":1.00270665,"ECCENTRICITY":0.0025989,"INCLINATION":58.5558,"RA_OF_ASC_NODE":38.711,"ARG_OF_PERICENTER":236.4268,"MEAN_ANOMALY":295.9247,"EPHEMERIS_TYPE":0,"CLASSIFICATION_TYPE":"U","NORAD_CAT_ID":44204,"ELEMENT_SET_NO":999,"REV_AT_EPOCH":617,"BSTAR":0,"MEAN_MOTION_DOT":-2.08e-6,"MEAN_MOTION_DDOT":0},{"OBJECT_NAME":"BEIDOU-2 G8","OBJECT_ID":"2019-027A","EPOCH":"2026-03-04T10:17:14.615232","MEAN_MOTION":1.00247794,"ECCENTRICITY":0.00117105,"INCLINATION":1.3928,"RA_OF_ASC_NODE":74.282,"ARG_OF_PERICENTER":280.8825,"MEAN_ANOMALY":105.699,"EPHEMERIS_TYPE":0,"CLASSIFICATION_TYPE":"U","NORAD_CAT_ID":44231,"ELEMENT_SET_NO":999,"REV_AT_EPOCH":2503,"BSTAR":0,"MEAN_MOTION_DOT":-2.63e-6,"MEAN_MOTION_DDOT":0},{"OBJECT_NAME":"YAMAL 601","OBJECT_ID":"2019-031A","EPOCH":"2026-03-05T15:56:30.486336","MEAN_MOTION":1.00273289,"ECCENTRICITY":0.0002556,"INCLINATION":0.0174,"RA_OF_ASC_NODE":170.4969,"ARG_OF_PERICENTER":178.5344,"MEAN_ANOMALY":102.476,"EPHEMERIS_TYPE":0,"CLASSIFICATION_TYPE":"U","NORAD_CAT_ID":44307,"ELEMENT_SET_NO":999,"REV_AT_EPOCH":2487,"BSTAR":0,"MEAN_MOTION_DOT":1.13e-6,"MEAN_MOTION_DDOT":0},{"OBJECT_NAME":"AT&T T-16","OBJECT_ID":"2019-034A","EPOCH":"2026-03-05T15:13:42.089952","MEAN_MOTION":1.00272659,"ECCENTRICITY":9.51e-5,"INCLINATION":0.023,"RA_OF_ASC_NODE":102.0482,"ARG_OF_PERICENTER":67.1555,"MEAN_ANOMALY":121.7122,"EPHEMERIS_TYPE":0,"CLASSIFICATION_TYPE":"U","NORAD_CAT_ID":44333,"ELEMENT_SET_NO":999,"REV_AT_EPOCH":2459,"BSTAR":0,"MEAN_MOTION_DOT":-1.22e-6,"MEAN_MOTION_DDOT":0},{"OBJECT_NAME":"EUTELSAT 7C","OBJECT_ID":"2019-034B","EPOCH":"2026-03-05T15:44:31.634016","MEAN_MOTION":1.00270081,"ECCENTRICITY":0.0003239,"INCLINATION":0.0719,"RA_OF_ASC_NODE":181.8978,"ARG_OF_PERICENTER":150.9559,"MEAN_ANOMALY":73.628,"EPHEMERIS_TYPE":0,"CLASSIFICATION_TYPE":"U","NORAD_CAT_ID":44334,"ELEMENT_SET_NO":999,"REV_AT_EPOCH":579,"BSTAR":0,"MEAN_MOTION_DOT":4.1e-7,"MEAN_MOTION_DDOT":0},{"OBJECT_NAME":"BEIDOU-3 IGSO-2","OBJECT_ID":"2019-035A","EPOCH":"2026-02-26T16:31:51.989952","MEAN_MOTION":1.00247364,"ECCENTRICITY":0.00387345,"INCLINATION":55.2338,"RA_OF_ASC_NODE":159.8353,"ARG_OF_PERICENTER":206.4752,"MEAN_ANOMALY":153.7223,"EPHEMERIS_TYPE":0,"CLASSIFICATION_TYPE":"U","NORAD_CAT_ID":44337,"ELEMENT_SET_NO":999,"REV_AT_EPOCH":2456,"BSTAR":0,"MEAN_MOTION_DOT":-1.76e-6,"MEAN_MOTION_DDOT":0},{"OBJECT_NAME":"COSMOS 2539","OBJECT_ID":"2019-048A","EPOCH":"2026-03-05T17:41:44.949984","MEAN_MOTION":1.00273672,"ECCENTRICITY":4.41e-5,"INCLINATION":0.0145,"RA_OF_ASC_NODE":118.3142,"ARG_OF_PERICENTER":205.3977,"MEAN_ANOMALY":117.1793,"EPHEMERIS_TYPE":0,"CLASSIFICATION_TYPE":"U","NORAD_CAT_ID":44457,"ELEMENT_SET_NO":999,"REV_AT_EPOCH":2418,"BSTAR":0,"MEAN_MOTION_DOT":7.4e-7,"MEAN_MOTION_DDOT":0},{"OBJECT_NAME":"EDRS-C","OBJECT_ID":"2019-049A","EPOCH":"2026-03-05T18:54:38.721024","MEAN_MOTION":1.00271858,"ECCENTRICITY":0.0001305,"INCLINATION":0.0339,"RA_OF_ASC_NODE":118.083,"ARG_OF_PERICENTER":237.3699,"MEAN_ANOMALY":234.214,"EPHEMERIS_TYPE":0,"CLASSIFICATION_TYPE":"U","NORAD_CAT_ID":44475,"ELEMENT_SET_NO":999,"REV_AT_EPOCH":2417,"BSTAR":0,"MEAN_MOTION_DOT":-2.69e-6,"MEAN_MOTION_DDOT":0},{"OBJECT_NAME":"INTELSAT 39 (IS-39)","OBJECT_ID":"2019-049B","EPOCH":"2026-03-05T10:52:07.171392","MEAN_MOTION":1.00269682,"ECCENTRICITY":7.21e-5,"INCLINATION":0.0244,"RA_OF_ASC_NODE":149.9814,"ARG_OF_PERICENTER":354.7122,"MEAN_ANOMALY":243.4677,"EPHEMERIS_TYPE":0,"CLASSIFICATION_TYPE":"U","NORAD_CAT_ID":44476,"ELEMENT_SET_NO":999,"REV_AT_EPOCH":2408,"BSTAR":0,"MEAN_MOTION_DOT":0,"MEAN_MOTION_DDOT":0},{"OBJECT_NAME":"AMOS-17","OBJECT_ID":"2019-050A","EPOCH":"2026-03-05T17:48:08.995392","MEAN_MOTION":1.00271937,"ECCENTRICITY":0.0001437,"INCLINATION":0.045,"RA_OF_ASC_NODE":291.1442,"ARG_OF_PERICENTER":56.4653,"MEAN_ANOMALY":99.8642,"EPHEMERIS_TYPE":0,"CLASSIFICATION_TYPE":"U","NORAD_CAT_ID":44479,"ELEMENT_SET_NO":999,"REV_AT_EPOCH":2414,"BSTAR":0,"MEAN_MOTION_DOT":1.02e-6,"MEAN_MOTION_DDOT":0},{"OBJECT_NAME":"COSMOS 1897 DEB","OBJECT_ID":"1987-096G","EPOCH":"2026-03-05T08:10:58.738368","MEAN_MOTION":1.00473678,"ECCENTRICITY":0.0023031,"INCLINATION":11.0128,"RA_OF_ASC_NODE":326.9945,"ARG_OF_PERICENTER":298.6903,"MEAN_ANOMALY":237.153,"EPHEMERIS_TYPE":0,"CLASSIFICATION_TYPE":"U","NORAD_CAT_ID":44572,"ELEMENT_SET_NO":999,"REV_AT_EPOCH":6994,"BSTAR":0,"MEAN_MOTION_DOT":7.4e-7,"MEAN_MOTION_DDOT":0},{"OBJECT_NAME":"LUCH DEB","OBJECT_ID":"1994-082G","EPOCH":"2026-03-03T19:34:59.110752","MEAN_MOTION":1.00702749,"ECCENTRICITY":0.0016547,"INCLINATION":14.6056,"RA_OF_ASC_NODE":354.8501,"ARG_OF_PERICENTER":88.2846,"MEAN_ANOMALY":90.4887,"EPHEMERIS_TYPE":0,"CLASSIFICATION_TYPE":"U","NORAD_CAT_ID":44582,"ELEMENT_SET_NO":999,"REV_AT_EPOCH":4518,"BSTAR":0,"MEAN_MOTION_DOT":-2.38e-6,"MEAN_MOTION_DDOT":0},{"OBJECT_NAME":"EUTELSAT 5 WEST B","OBJECT_ID":"2019-067A","EPOCH":"2026-03-05T15:41:09.458016","MEAN_MOTION":1.00272905,"ECCENTRICITY":0.0003208,"INCLINATION":0.0925,"RA_OF_ASC_NODE":311.8541,"ARG_OF_PERICENTER":43.0402,"MEAN_ANOMALY":38.7482,"EPHEMERIS_TYPE":0,"CLASSIFICATION_TYPE":"U","NORAD_CAT_ID":44624,"ELEMENT_SET_NO":999,"REV_AT_EPOCH":2339,"BSTAR":0,"MEAN_MOTION_DOT":-4.9e-7,"MEAN_MOTION_DDOT":0},{"OBJECT_NAME":"MEV-1","OBJECT_ID":"2019-067B","EPOCH":"2026-02-26T20:08:46.258656","MEAN_MOTION":1.00269845,"ECCENTRICITY":0.0003215,"INCLINATION":0.8853,"RA_OF_ASC_NODE":269.7923,"ARG_OF_PERICENTER":58.449,"MEAN_ANOMALY":286.7172,"EPHEMERIS_TYPE":0,"CLASSIFICATION_TYPE":"U","NORAD_CAT_ID":44625,"ELEMENT_SET_NO":999,"REV_AT_EPOCH":6047,"BSTAR":0,"MEAN_MOTION_DOT":-1.6e-6,"MEAN_MOTION_DDOT":0}]
